MEAN_MOTION;ECCENTRICITY;INCLINATION;RA_OF_ASC_NODE;ARG_OF_PERICENTER;MEAN_ANOMALY;BSTAR;MEAN_MOTION_DOT;MEAN_MOTION_DDOT;TYPE
14.34218712;0.0002426;86.4011;21.1222;86.5768;273.5705;1.7085E-5;6.8E-7;0;Iridium
14.34218813;0.0002424;86.4011;20.9183;86.4756;273.6717;1.8681E-5;7.2E-7;0;Iridium
14.34218813;0.0002424;86.4011;20.9183;86.4756;273.6717;1.8681E-5;7.2E-7;0;Iridium
14.34218886;0.0002428;86.4012;20.7144;86.4577;273.6896;1.884E-5;7.3E-7;0;Iridium
14.34218917;0.0002421;86.4013;20.5105;86.1064;274.0409;1.7182E-5;6.8E-7;0;Iridium
14.34218935;0.0002427;86.4014;20.2775;86.0414;274.1059;1.4831E-5;6.1E-7;0;Iridium
14.34218966;0.0002423;86.4014;20.1028;85.6048;274.5424;1.3751E-5;5.8E-7;0;Iridium
14.3421903;0.0002426;86.4014;19.928;85.5493;274.5979;1.4637E-5;6.1E-7;0;Iridium
14.34219083;0.0002422;86.4015;19.6949;85.2827;274.8645;1.4258E-5;6.0E-7;0;Iridium
14.34219083;0.0002422;86.4015;19.6949;85.2827;274.8645;1.4258E-5;6.0E-7;0;Iridium
14.34219226;0.0002409;86.4016;19.0832;84.5008;275.6463;1.5297E-5;6.3E-7;0;Iridium
14.34219357;0.0002402;86.4017;18.8501;84.3435;275.8035;1.9185E-5;7.4E-7;0;Iridium
14.34219313;0.0002408;86.4017;18.6171;84.4155;275.7316;1.6162E-5;6.5E-7;0;Iridium
14.34219407;0.0002407;86.4017;18.4421;84.1655;275.9815;1.9846E-5;7.5E-7;0;Iridium
14.3421944;0.0002407;86.4018;18.2091;83.9717;276.1753;1.9378E-5;7.4E-7;0;Iridium
14.34215938;0.0002435;86.4019;17.8013;83.4988;276.6485;2.1194E-5;7.9E-7;0;Iridium
14.34216114;0.0002431;86.4019;17.5101;83.2147;276.9325;3.3373E-5;1.13E-6;0;Iridium
14.34216185;0.0002425;86.4019;17.3936;83.169;276.9782;3.4245E-5;1.16E-6;0;Iridium
14.34216168;0.0002425;86.402;17.1023;82.7528;277.3944;2.0915E-5;7.8E-7;0;Iridium
14.34216205;0.0002419;86.402;16.9567;82.6755;277.4716;1.9946E-5;7.6E-7;0;Iridium
14.34216367;0.0002416;86.4021;16.6946;82.4674;277.6796;2.8048E-5;9.8E-7;0;Iridium
14.34216403;0.000241;86.4021;16.549;82.4624;277.6846;2.5743E-5;9.2E-7;0;Iridium
14.34216493;0.0002401;86.4021;16.2577;82.1442;278.0027;2.5521E-5;9.1E-7;0;Iridium
14.34216538;0.0002394;86.4021;16.1121;82.1132;278.0335;2.4285E-5;8.8E-7;0;Iridium
14.34216607;0.0002387;86.4021;15.85;81.8741;278.2726;2.3232E-5;8.5E-7;0;Iridium
14.34216564;0.0002389;86.4021;15.7044;81.6732;278.4734;1.5793E-5;6.4E-7;0;Iridium
14.3421665;0.0002385;86.4022;15.4423;81.5696;278.577;1.7916E-5;7.0E-7;0;Iridium
14.34216654;0.0002384;86.4022;15.4132;81.5376;278.609;1.7811E-5;7.0E-7;0;Iridium
14.34216624;0.0002382;86.4022;15.2967;81.4073;278.7393;1.243E-5;5.5E-7;0;Iridium
14.34201746;0.0002454;86.4022;15.0346;81.5702;278.5772;1.1794E-5;5.3E-7;0;Iridium
14.34201633;0.0002459;86.4022;15.0056;81.4136;278.7338;1.1923E-5;5.3E-7;0;Iridium
14.34218559;0.0002402;86.4022;14.8597;80.889;279.2578;4.3916E-6;3.2E-7;0;Iridium
14.34218603;0.0002404;86.4023;14.7433;81.9997;278.1471;4.8529E-6;3.3E-7;0;Iridium
14.34218576;0.00024;86.4023;14.5978;81.715;278.4318;4.1817E-6;3.1E-7;0;Iridium
14.34218629;0.0002392;86.4023;14.4522;81.749;278.3977;3.6759E-6;3.0E-7;0;Iridium
14.34218629;0.0002383;86.4024;14.2192;81.6162;278.5304;3.5592E-6;3.0E-7;0;Iridium
14.34218645;0.0002376;86.4024;14.0445;81.5547;278.5918;3.5555E-6;3.0E-7;0;Iridium
14.34218755;0.0002371;86.4024;13.7824;81.3004;278.846;1.2629E-5;5.5E-7;0;Iridium
14.34218767;0.0002371;86.4024;13.7532;81.2518;278.8946;1.3462E-5;5.7E-7;0;Iridium
14.34218844;0.0002368;86.4024;13.6076;81.3588;278.7876;1.751E-5;6.9E-7;0;Iridium
14.34218859;0.0002359;86.4024;13.3455;81.0739;279.0724;1.4793E-5;6.1E-7;0;Iridium
14.3421894;0.0002352;86.4025;13.1999;81.1021;279.0441;1.8219E-5;7.1E-7;0;Iridium
14.34219002;0.0002342;86.4024;12.9378;80.8703;279.2758;1.929E-5;7.4E-7;0;Iridium
14.34219031;0.0002336;86.4025;12.7922;80.863;279.283;1.8693E-5;7.2E-7;0;Iridium
14.34219098;0.0002327;86.4024;12.5301;80.7512;279.3947;2.0299E-5;7.7E-7;0;Iridium
14.34219106;0.0002326;86.4024;12.501;80.7153;279.4306;2.0645E-5;7.8E-7;0;Iridium
14.34219157;0.0002325;86.4024;12.3554;80.7111;279.4347;2.1872E-5;8.1E-7;0;Iridium
14.34219254;0.0002323;86.4024;12.0933;80.1875;279.9583;2.3768E-5;8.6E-7;0;Iridium
14.34219254;0.0002323;86.4024;12.0933;80.1875;279.9583;2.3768E-5;8.6E-7;0;Iridium
14.34219266;0.0002321;86.4024;12.0642;80.1602;279.9856;2.391E-5;8.7E-7;0;Iridium
14.34219341;0.0002318;86.4024;11.9477;80.2154;279.9304;2.6415E-5;9.4E-7;0;Iridium
14.34219399;0.0002318;86.4024;11.8894;80.2648;279.8809;2.975E-5;1.03E-6;0;Iridium
14.34219537;0.0002305;86.4023;11.54;79.9959;280.1497;3.0328E-5;1.05E-6;0;Iridium
14.34219579;0.0002296;86.4023;11.3944;79.8445;280.301;2.9414E-5;1.02E-6;0;Iridium
14.34219596;0.0002294;86.4023;11.3652;79.855;280.2904;2.957E-5;1.03E-6;0;Iridium
14.34219672;0.0002286;86.4023;11.1323;79.8524;280.293;2.8763E-5;1.0E-6;0;Iridium
14.34219714;0.0002279;86.4022;10.9575;79.6324;280.5128;2.7093E-5;9.6E-7;0;Iridium
14.34219802;0.0002271;86.4022;10.7245;79.5903;280.5548;2.6293E-5;9.3E-7;0;Iridium
14.3421988;0.0002263;86.4022;10.5498;79.4943;280.6508;2.7752E-5;9.7E-7;0;Iridium
14.34220023;0.000224;86.4021;10.113;79.2525;280.8923;2.5144E-5;9.0E-7;0;Iridium
14.34220023;0.000224;86.4021;10.113;79.2525;280.8923;2.5144E-5;9.0E-7;0;Iridium
14.34220069;0.000223;86.4021;9.88;79.1655;280.9791;2.234E-5;8.2E-7;0;Iridium
14.34220148;0.0002218;86.4021;9.7053;79.219;280.9256;2.2696E-5;8.3E-7;0;Iridium
14.34220253;0.0002213;86.402;9.4723;79.2998;280.8447;2.285E-5;8.4E-7;0;Iridium
14.34220378;0.0002203;86.402;9.2684;79.2918;280.8526;2.4982E-5;9.0E-7;0;Iridium
14.34220414;0.0002198;86.402;9.1228;79.2683;280.876;2.3913E-5;8.7E-7;0;Iridium
14.34220379;0.0002204;86.402;9.0354;79.4462;280.6982;2.0879E-5;7.8E-7;0;Iridium
14.34220537;0.0002196;86.4019;8.6859;79.4642;280.6801;2.2464E-5;8.3E-7;0;Iridium
14.34220542;0.0002196;86.4019;8.6568;79.524;280.6203;2.1995E-5;8.1E-7;0;Iridium
14.34220598;0.0002183;86.4019;8.4529;79.2873;280.8569;2.1569E-5;8.0E-7;0;Iridium
14.34220648;0.000218;86.4019;8.2199;79.1079;281.0362;2.0331E-5;7.7E-7;0;Iridium
14.34220731;0.0002172;86.4019;8.045;79.3248;280.8192;2.2437E-5;8.3E-7;0;Iridium
14.34220748;0.0002177;86.4018;7.812;79.3301;280.814;2.0083E-5;7.6E-7;0;Iridium
14.34220828;0.0002162;86.4017;7.4041;79.3722;280.7717;1.9293E-5;7.4E-7;0;Iridium
14.34220968;0.0002141;86.4016;6.9962;79.3267;280.8169;2.2394E-5;8.2E-7;0;Iridium
14.34221063;0.0002131;86.4016;6.7923;79.3549;280.7887;2.4663E-5;8.9E-7;0;Iridium
14.34221136;0.0002122;86.4015;6.5593;79.3062;280.8373;2.5117E-5;9.0E-7;0;Iridium
14.34221219;0.0002112;86.4014;6.3845;79.2508;280.8925;2.7235E-5;9.6E-7;0;Iridium
14.34214459;0.0002109;86.4014;6.1517;76.122;284.021;2.6932E-5;9.5E-7;0;Iridium
14.34214934;0.0002128;86.4012;5.9476;78.8482;281.2953;2.7309E-5;9.6E-7;0;Iridium
14.34214868;0.0002132;86.4011;5.7727;80.209;279.9347;1.4566E-5;6.1E-7;0;Iridium
14.34214884;0.0002128;86.4011;5.7145;79.7625;280.381;1.3994E-5;5.9E-7;0;Iridium
14.34214896;0.0002109;86.401;5.3357;79.4719;280.6714;3.5246E-6;3.0E-7;0;Iridium
14.34214902;0.0002106;86.401;5.3065;79.3201;280.8232;3.3146E-6;2.9E-7;0;Iridium
14.34214941;0.0002096;86.401;5.1318;79.1451;280.998;3.1167E-6;2.9E-7;0;Iridium
14.34214941;0.0002096;86.401;5.1318;79.1451;280.998;3.1167E-6;2.9E-7;0;Iridium
14.34215098;0.0002086;86.4009;4.8987;79.3189;280.8241;1.536E-5;6.3E-7;0;Iridium
14.34215222;0.0002076;86.4009;4.7239;79.1907;280.9522;2.0821E-5;7.8E-7;0;Iridium
14.34215385;0.0002054;86.4008;4.3161;79.406;280.7367;2.1962E-5;8.1E-7;0;Iridium
14.34215391;0.0002053;86.4007;4.2869;79.3951;280.7476;2.1621E-5;8.0E-7;0;Iridium
14.34215417;0.0002047;86.4007;4.083;79.5;280.6426;1.8734E-5;7.2E-7;0;Iridium
14.3421552;0.0002035;86.4006;3.8499;79.9147;280.2278;2.0229E-5;7.6E-7;0;Iridium
14.34215555;0.0002032;86.4006;3.675;80.0858;280.0567;1.8648E-5;7.2E-7;0;Iridium
14.3421552;0.0002036;86.4006;3.646;80.2573;279.8852;1.6763E-5;6.7E-7;0;Iridium
14.34215602;0.0002029;86.4005;3.442;80.2117;279.9308;1.8188E-5;7.1E-7;0;Iridium
14.34215637;0.0002026;86.4005;3.2089;80.2947;279.8477;1.6881E-5;6.7E-7;0;Iridium
14.34215726;0.0002014;86.4004;2.8884;80.3458;279.7966;1.773E-5;6.9E-7;0;Iridium
14.34215725;0.0002014;86.4004;2.8301;80.4036;279.7387;1.6554E-5;6.6E-7;0;Iridium
14.34215787;0.0002002;86.4003;2.4222;80.493;279.6492;1.585E-5;6.4E-7;0;Iridium
14.34215867;0.0001997;86.4003;2.2181;80.8622;279.28;1.8287E-5;7.1E-7;0;Iridium
14.34215921;0.0001993;86.4002;1.985;80.9976;279.1446;1.8475E-5;7.2E-7;0;Iridium
14.34216026;0.0001984;86.4;1.6644;80.8556;279.2864;2.1285E-5;7.9E-7;0;Iridium
14.34216026;0.0001984;86.4;1.6644;80.8556;279.2864;2.1285E-5;7.9E-7;0;Iridium
14.34216041;0.000198;86.4;1.577;81.0053;279.1367;2.0224E-5;7.6E-7;0;Iridium
14.34216212;0.0001964;86.3999;1.2273;81.1692;278.9726;2.582E-5;9.2E-7;0;Iridium
14.34216207;0.0001965;86.3999;1.169;81.2258;278.916;2.4346E-5;8.8E-7;0;Iridium
14.3421627;0.0001954;86.3998;0.9649;81.333;278.8087;2.5106E-5;9.0E-7;0;Iridium
14.34216347;0.0001957;86.3997;0.79;81.8435;278.2983;2.6836E-5;9.5E-7;0;Iridium
14.34216348;0.0001958;86.3997;0.7317;82.0129;278.1289;2.6077E-5;9.3E-7;0;Iridium
14.34216454;0.0001949;86.3995;0.3819;82.2857;277.856;2.6243E-5;9.3E-7;0;Iridium
14.34216454;0.0001949;86.3995;0.3819;82.2857;277.856;2.6243E-5;9.3E-7;0;Iridium
14.34216439;0.0001953;86.3994;0.3236;82.5742;277.5676;2.4499E-5;8.8E-7;0;Iridium
14.3421658;0.0001947;86.3993;359.9156;82.7532;277.3885;2.4294E-5;8.8E-7;0;Iridium
14.34216619;0.0001946;86.3993;359.7115;83.2097;276.932;2.2476E-5;8.3E-7;0;Iridium
14.3421669;0.0001945;86.3992;359.5075;83.7809;276.3608;2.2164E-5;8.2E-7;0;Iridium
14.34216774;0.0001942;86.3991;359.3035;83.9993;276.1424;2.2204E-5;8.2E-7;0;Iridium
14.34216882;0.0001939;86.399;359.0702;84.2389;275.9028;2.3037E-5;8.4E-7;0;Iridium
14.34217024;0.0001935;86.3988;358.6621;84.748;275.3936;2.1672E-5;8.0E-7;0;Iridium
14.34217155;0.0001928;86.3987;358.2831;84.9959;275.1457;2.1451E-5;8.0E-7;0;Iridium
14.34217159;0.0001928;86.3987;358.254;85.0504;275.0912;2.0876E-5;7.8E-7;0;Iridium
14.3421718;0.0001924;86.3986;358.0207;85.3666;274.7749;1.8472E-5;7.2E-7;0;Iridium
14.34217205;0.0001923;86.3986;357.8167;85.7827;274.3589;1.6486E-5;6.6E-7;0;Iridium
